OBJECT_NAME,OBJECT_ID,EPOCH,MEAN_MOTION,ECCENTRICITY,INCLINATION,RA_OF_ASC_NODE,ARG_OF_PERICENTER,MEAN_ANOMALY,EPHEMERIS_TYPE,CLASSIFICATION_TYPE,NORAD_CAT_ID,ELEMENT_SET_NO,REV_AT_EPOCH,BSTAR,MEAN_MOTION_DOT,MEAN_MOTION_DDOT
STARLINK T,2023-161T,2023-10-26T16:00:00.999936,15.91040051,.0000471,53.0572,218.1338,115.1372,305.9333,0,U,58114,999,195,-.31088E-2,-.100621E-1,.3066E-3
STARLINK U,2023-161U,2023-10-26T16:00:00.999936,15.91105857,.0000473,53.0571,218.1315,102.3801,319.7152,0,U,58115,999,195,-.31247E-2,-.1014699E-1,.3115E-3
STARLINK V,2023-161V,2023-10-26T16:00:00.999936,15.91168252,.0000467,53.0572,218.1295,122.6947,300.3731,0,U,58116,999,195,-.31464E-2,-.1024927E-1,.3174E-3
STARLINK W,2023-161W,2023-10-26T16:00:00.999936,15.91260639,.0000462,53.0571,218.1268,104.5545,319.8579,0,U,58117,999,195,-.31734E-2,-.1038513E-1,.32536E-3
YAOGAN-39 04A,2023-163A,2023-10-26T17:32:58.867296,15.23040139,.0007631,34.9965,290.0831,283.4048,243.0959,0,U,58141,999,44,0,-.37E-6,0
CZ-2D R/B,2023-163B,2023-10-27T05:23:48.446592,15.23316284,.0010334,35.0076,287.0196,233.6854,126.2907,0,U,58142,999,51,.98401E-3,.24003E-3,0
YAOGAN-39 04B,2023-163C,2023-10-24T10:23:15.392256,15.23369027,.000909,34.9975,304.5376,273.5455,230.7754,0,U,58143,999,8,0,-.37E-6,0
CZ-2D DEB,2023-163D,2023-10-26T10:30:44.845056,15.23525965,.0009425,34.9976,291.9172,293.6334,66.3401,0,U,58144,999,39,.12893E-2,.31685E-3,0
YAOGAN-39 04C,2023-163E,2023-10-26T17:31:21.922176,15.23624319,.0010688,34.9894,290.0740,306.2125,220.1638,0,U,58145,999,44,0,-.37E-6,0
SHENZHOU-17 (SZ-17),2023-164A,2023-10-26T10:29:17.841120,15.60292320,.0004816,41.4711,76.7859,329.8861,30.1700,0,U,58146,999,14235,.27986E-3,.2328E-3,0
2023-164B,2023-164B,2023-10-26T19:21:26.147232,16.02926108,.0107589,41.4792,74.3013,127.2032,234.1347,0,U,58147,999,11,.43087E-2,.5848651E-1,.74357E-5
