STARLINK T              
1 58114U 23161T   23299.66667824 -.01006210  30660-3 -31088-2 0  9994
2 58114  53.0572 218.1338 0000471 115.1372 305.9333 15.91040051  1958
STARLINK U              
1 58115U 23161U   23299.66667824 -.01014699  31150-3 -31247-2 0  9997
2 58115  53.0571 218.1315 0000473 102.3801 319.7152 15.91105857  1958
STARLINK V              
1 58116U 23161V   23299.66667824 -.01024927  31740-3 -31464-2 0  9999
2 58116  53.0572 218.1295 0000467 122.6947 300.3731 15.91168252  1953
STARLINK W              
1 58117U 23161W   23299.66667824 -.01038513  32536-3 -31734-2 0  9990
2 58117  53.0571 218.1268 0000462 104.5545 319.8579 15.91260639  1958
YAOGAN-39 04A           
1 58141U 23163A   23299.73123689 -.00000037  00000+0  00000+0 0  9997
2 58141  34.9965 290.0831 0007631 283.4048 243.0959 15.23040139   444
CZ-2D R/B               
1 58142U 23163B   23300.22486628  .00024003  00000+0  98401-3 0  9994
2 58142  35.0076 287.0196 0010334 233.6854 126.2907 15.23316284   516
YAOGAN-39 04B           
1 58143U 23163C   23297.43281704 -.00000037  00000+0  00000+0 0  9997
2 58143  34.9975 304.5376 0009090 273.5455 230.7754 15.23369027    81
CZ-2D DEB               
1 58144U 23163D   23299.43801904  .00031685  00000+0  12893-2 0  9998
2 58144  34.9976 291.9172 0009425 293.6334  66.3401 15.23525965   398
YAOGAN-39 04C           
1 58145U 23163E   23299.73011484 -.00000037  00000+0  00000+0 0  9990
2 58145  34.9894 290.0740 0010688 306.2125 220.1638 15.23624319   442
SHENZHOU-17 (SZ-17)     
1 58146U 23164A   23299.43701205  .00023280  00000+0  27986-3 0  9996
2 58146  41.4711  76.7859 0004816 329.8861  30.1700 15.60292320142358
2023-164B               
1 58147U 23164B   23299.80655263  .05848651  74357-5  43087-2 0  9993
2 58147  41.4792  74.3013 0107589 127.2032 234.1347 16.02926108   110
